{
"type": "FeatureCollection",
"name": "extreme_terrain",
"crs": { "type": "name", "properties": { "name": "urn:ogc:def:crs:OGC:1.3:CRS84" } },
"features": [
{ "type": "Feature", "properties": { "id": 1 }, "geometry": { "type": "MultiPolygon", "coordinates": [ [ [ [ -123.533649730993389, 40.299794170074641 ], [ -122.96633174912948, 40.307077898205705 ], [ -122.96123798498256, 39.85155893290883 ], [ -123.559755272246363, 39.881370166569987 ], [ -123.533649730993389, 40.299794170074641 ] ] ] ] } },
{ "type": "Feature", "properties": { "id": 2 }, "geometry": { "type": "MultiPolygon", "coordinates": [ [ [ [ -127.194155991078205, 53.78915924532361 ], [ -127.117749528874327, 52.944239973438286 ], [ -128.212908820463468, 52.941170403193112 ], [ -128.233283877051178, 53.780130723008043 ], [ -127.194155991078205, 53.78915924532361 ] ] ] ] } },
{ "type": "Feature", "properties": { "id": 3 }, "geometry": { "type": "MultiPolygon", "coordinates": [ [ [ [ -65.793922964029306, -18.018956465039317 ], [ -64.219949842629092, -18.062546495083271 ], [ -64.077324446515149, -20.093914126971761 ], [ -65.778641671588531, -20.065209234753272 ], [ -65.793922964029306, -18.018956465039317 ] ] ] ] } },
{ "type": "Feature", "properties": { "id": 4 }, "geometry": { "type": "MultiPolygon", "coordinates": [ [ [ [ 9.960537429057796, 47.092162772998691 ], [ 11.942011682212103, 47.106032734146154 ], [ 11.987855559534436, 45.970849766061939 ], [ 9.914693551735461, 45.928349996811107 ], [ 9.960537429057796, 47.092162772998691 ] ] ] ] } },
{ "type": "Feature", "properties": { "id": 5 }, "geometry": { "type": "MultiPolygon", "coordinates": [ [ [ [ 74.84999889675106, 35.881851296136439 ], [ 77.885882328319099, 35.832310531813782 ], [ 77.855319743437533, 34.60893880302541 ], [ 74.748123613812538, 34.58378052568807 ], [ 74.84999889675106, 35.881851296136439 ] ] ] ] } },
{ "type": "Feature", "properties": { "id": 6 }, "geometry": { "type": "MultiPolygon", "coordinates": [ [ [ [ 94.899054579052745, 33.715409557239973 ], [ 99.809443216689644, 33.511792074345372 ], [ 99.890943443040456, 29.995737095612505 ], [ 94.878679522465049, 30.066296284463661 ], [ 94.899054579052745, 33.715409557239973 ] ] ] ] } },
{ "type": "Feature", "properties": { "id": 6 }, "geometry": { "type": "MultiPolygon", "coordinates": [ [ [ [ 5.568439293370863, 62.312563852572133 ], [ 8.543197555175785, 62.326761339571874 ], [ 8.645072838114311, 60.589542636347346 ], [ 5.446188953844633, 60.694428932714814 ], [ 5.568439293370863, 62.312563852572133 ] ] ] ] } }
]
}
